{"type":"FeatureCollection","features":[{"type":"Feature","geometry":{"type":"Point","coordinates":[151.212283,-33.862085]},"properties":{"name":"Justice & Police Museum","kind":"Museum"}},{"type":"Feature","geometry":{"type":"Point","coordinates":[151.220252,-33.879005]},"properties":{"name":"Sydney Jewish Museum","kind":"Museum"}},{"type":"Feature","geometry":{"type":"Point","coordinates":[151.226439,-33.87011]},"properties":{"name":"Elizabeth Bay House","kind":"Museum"}},{"type":"Feature","geometry":{"type":"Point","coordinates":[151.198741,-33.869375]},"properties":{"name":"Australian National Maritime Museum","kind":"Museum"}},{"type":"Feature","geometry":{"type":"Point","coordinates":[151.213255,-33.874347]},"properties":{"name":"Australian Museum","kind":"Museum"}},{"type":"Feature","geometry":{"type":"Point","coordinates":[151.212801,-33.869599]},"properties":{"name":"Hyde Park Barracks","kind":"Museum"}},{"type":"Feature","geometry":{"type":"Point","coordinates":[151.199557,-33.878351]},"properties":{"name":"Powerhouse Museum","kind":"Museum"}},{"type":"Feature","geometry":{"type":"Point","coordinates":[151.204568,-33.859556]},"properties":{"name":"Sydney Observatory","kind":"Museum"}},{"type":"Feature","geometry":{"type":"Point","coordinates":[151.20768,-33.867805]},"properties":{"name":"Sydney General Post Office","kind":"Heritage building"}},{"type":"Feature","geometry":{"type":"Point","coordinates":[151.201546,-33.870735]},"properties":{"name":"Pyrmont Bridge","kind":"Heritage building"}},{"type":"Feature","geometry":{"type":"Point","coordinates":[151.205596,-33.866931]},"properties":{"name":"AWA Tower","kind":"Heritage building"}},{"type":"Feature","geometry":{"type":"Point","coordinates":[151.183051,-33.877683]},"properties":{"name":"Tranby","kind":"Heritage building"}},{"type":"Feature","geometry":{"type":"Point","coordinates":[151.184753,-33.876325]},"properties":{"name":"Bidura","kind":"Heritage building"}},{"type":"Feature","geometry":{"type":"Point","coordinates":[151.215159,-33.857117]},"properties":{"name":"Sydney Opera House","kind":"Heritage building"}},{"type":"Feature","geometry":{"type":"Point","coordinates":[151.222565,-33.859706]},"properties":{"name":"Mrs Macquarie's Chair","kind":"Historic site"}},{"type":"Feature","geometry":{"type":"Point","coordinates":[151.210051,-33.875246]},"properties":{"name":"Yininmadyemi - Thou didst let fall","kind":"Historic site"}},{"type":"Feature","geometry":{"type":"Point","coordinates":[151.202336,-33.858451]},"properties":{"name":"Dalgety's Bond Store C","kind":"Historic site"}},{"type":"Feature","geometry":{"type":"Point","coordinates":[151.168696,-33.911886]},"properties":{"name":"Sydenham Drainage Pit","kind":"Historic site"}},{"type":"Feature","geometry":{"type":"Point","coordinates":[151.209195,-33.858894]},"properties":{"name":"Cadman's Cottage","kind":"Historic site"}},{"type":"Feature","geometry":{"type":"Point","coordinates":[151.192361,-33.884319]},"properties":{"name":"University Hall","kind":"Historic site"}},{"type":"Feature","geometry":{"type":"Point","coordinates":[151.209944,-33.86392]},"properties":{"name":"Department of Lands","kind":"Historic site"}},{"type":"Feature","geometry":{"type":"Point","coordinates":[151.206819,-33.872731]},"properties":{"name":"Queen Victoria Monument","kind":"Historic site"}},{"type":"Feature","geometry":{"type":"Point","coordinates":[151.20104,-33.874227]},"properties":{"name":"Darling Harbour Carousel","kind":"Historic site"}},{"type":"Feature","geometry":{"type":"Point","coordinates":[151.180068,-33.898272]},"properties":{"name":"Newtown Tram Depot","kind":"Historic site"}},{"type":"Feature","geometry":{"type":"Point","coordinates":[151.176698,-33.866949]},"properties":{"name":"White Bay Power Station","kind":"Historic site"}},{"type":"Feature","geometry":{"type":"Point","coordinates":[151.225583,-33.854928]},"properties":{"name":"Fort Denison","kind":"Historic site"}}]}